{
  "type": "FeatureCollection",
  "name": "yamanote-akihabara-okachimachi",
  "features": [
    {
      "type": "Feature",
      "properties": {
        "line": "JR山手線 / Yamanote Line",
        "from": "Akihabara (JY03)",
        "to": "Okachimachi (JY04)",
        "segment": 2,
        "direction": "inner (内回り)",
        "altitude": "ellipsoidal metres (JGD2011 / GRS80), approximate rail head",
        "source": "OpenStreetMap (data/geo/yamanote-loop.geojson, relation 5376382)",
        "license": "ODbL 1.0",
        "attribution": "© les contributeurs OpenStreetMap - https://www.openstreetmap.org/copyright",
        "approximate": false,
        "note": "Tracé découpé depuis la polyligne réelle de la boucle (chantier 1).",
        "lengthMeters": 966.1,
        "generatedBy": "scripts/plateau/fetch-route.mjs"
      },
      "geometry": {
        "type": "LineString",
        "coordinates": [
          [
            139.773008,
            35.698358,
            48.2
          ],
          [
            139.773431,
            35.701481,
            48.36
          ],
          [
            139.773523,
            35.701863,
            48.52
          ],
          [
            139.773987,
            35.703314,
            48.68
          ],
          [
            139.774056,
            35.703613,
            48.84
          ],
          [
            139.77461,
            35.706955,
            49
          ]
        ]
      }
    }
  ]
}
