{
  "type": "FeatureCollection",
  "name": "yamanote-ebisu-meguro",
  "features": [
    {
      "type": "Feature",
      "properties": {
        "line": "JR山手線 / Yamanote Line",
        "from": "Ebisu (JY21)",
        "to": "Meguro (JY22)",
        "segment": 20,
        "direction": "inner (内回り)",
        "altitude": "ellipsoidal metres (JGD2011 / GRS80), approximate rail head",
        "source": "OpenStreetMap (data/geo/yamanote-loop.geojson, relation 5376382)",
        "license": "ODbL 1.0",
        "attribution": "© les contributeurs OpenStreetMap - https://www.openstreetmap.org/copyright",
        "approximate": false,
        "note": "Tracé découpé depuis la polyligne réelle de la boucle (chantier 1).",
        "lengthMeters": 1472.3,
        "generatedBy": "scripts/plateau/fetch-route.mjs"
      },
      "geometry": {
        "type": "LineString",
        "coordinates": [
          [
            139.71019,
            35.646435,
            52.3
          ],
          [
            139.710515,
            35.645888,
            52.88
          ],
          [
            139.711016,
            35.644943,
            53.45
          ],
          [
            139.711989,
            35.643278,
            54.03
          ],
          [
            139.712942,
            35.641522,
            54.6
          ],
          [
            139.713327,
            35.640783,
            55.18
          ],
          [
            139.713746,
            35.639812,
            55.75
          ],
          [
            139.713934,
            35.639442,
            56.33
          ],
          [
            139.714522,
            35.638575,
            56.9
          ],
          [
            139.714704,
            35.638263,
            57.48
          ],
          [
            139.714845,
            35.637882,
            58.05
          ],
          [
            139.714902,
            35.637657,
            58.63
          ],
          [
            139.71502,
            35.636702,
            59.2
          ],
          [
            139.71507,
            35.636473,
            59.78
          ],
          [
            139.715428,
            35.63519,
            60.35
          ],
          [
            139.715642,
            35.634672,
            60.93
          ],
          [
            139.715797,
            35.634071,
            61.5
          ]
        ]
      }
    }
  ]
}
