{
  "type": "FeatureCollection",
  "name": "yamanote-harajuku-shibuya",
  "features": [
    {
      "type": "Feature",
      "properties": {
        "line": "JR山手線 / Yamanote Line",
        "from": "Harajuku (JY19)",
        "to": "Shibuya (JY20)",
        "segment": 18,
        "direction": "inner (内回り)",
        "altitude": "ellipsoidal metres (JGD2011 / GRS80), approximate rail head",
        "source": "OpenStreetMap (data/geo/yamanote-loop.geojson, relation 5376382)",
        "license": "ODbL 1.0",
        "attribution": "© les contributeurs OpenStreetMap - https://www.openstreetmap.org/copyright",
        "approximate": false,
        "note": "Tracé découpé depuis la polyligne réelle de la boucle (chantier 1).",
        "lengthMeters": 1359.8,
        "generatedBy": "scripts/plateau/fetch-route.mjs"
      },
      "geometry": {
        "type": "LineString",
        "coordinates": [
          [
            139.70247,
            35.670217,
            66.8
          ],
          [
            139.701517,
            35.663294,
            65.44
          ],
          [
            139.701425,
            35.662345,
            64.08
          ],
          [
            139.701261,
            35.660137,
            62.71
          ],
          [
            139.70125,
            35.659606,
            61.35
          ],
          [
            139.701306,
            35.659194,
            59.99
          ],
          [
            139.701424,
            35.65878,
            58.63
          ],
          [
            139.70153,
            35.658503,
            57.26
          ],
          [
            139.701751,
            35.658075,
            55.9
          ]
        ]
      }
    }
  ]
}
