{
  "type": "FeatureCollection",
  "name": "yamanote-kanda-akihabara",
  "features": [
    {
      "type": "Feature",
      "properties": {
        "line": "JR山手線 / Yamanote Line",
        "from": "Kanda (JY02)",
        "to": "Akihabara (JY03)",
        "segment": 1,
        "direction": "inner (内回り)",
        "altitude": "ellipsoidal metres (JGD2011 / GRS80), approximate rail head",
        "source": "OpenStreetMap (data/geo/yamanote-loop.geojson, relation 5376382)",
        "license": "ODbL 1.0",
        "attribution": "© les contributeurs OpenStreetMap - https://www.openstreetmap.org/copyright",
        "approximate": false,
        "note": "Tracé découpé depuis la polyligne réelle de la boucle (chantier 1).",
        "lengthMeters": 756.6,
        "generatedBy": "scripts/plateau/fetch-route.mjs"
      },
      "geometry": {
        "type": "LineString",
        "coordinates": [
          [
            139.770965,
            35.691781,
            48.8
          ],
          [
            139.771126,
            35.692136,
            48.72
          ],
          [
            139.771879,
            35.693965,
            48.65
          ],
          [
            139.772226,
            35.69475,
            48.58
          ],
          [
            139.772505,
            35.695478,
            48.5
          ],
          [
            139.772641,
            35.695891,
            48.43
          ],
          [
            139.772731,
            35.696284,
            48.35
          ],
          [
            139.772807,
            35.696727,
            48.28
          ],
          [
            139.773008,
            35.698358,
            48.2
          ]
        ]
      }
    }
  ]
}
