{
  "type": "FeatureCollection",
  "name": "yamanote-meguro-gotanda",
  "features": [
    {
      "type": "Feature",
      "properties": {
        "line": "JR山手線 / Yamanote Line",
        "from": "Meguro (JY22)",
        "to": "Gotanda (JY23)",
        "segment": 21,
        "direction": "inner (内回り)",
        "altitude": "ellipsoidal metres (JGD2011 / GRS80), approximate rail head",
        "source": "OpenStreetMap (data/geo/yamanote-loop.geojson, relation 5376382)",
        "license": "ODbL 1.0",
        "attribution": "© les contributeurs OpenStreetMap - https://www.openstreetmap.org/copyright",
        "approximate": false,
        "note": "Tracé découpé depuis la polyligne réelle de la boucle (chantier 1).",
        "lengthMeters": 1187.5,
        "generatedBy": "scripts/plateau/fetch-route.mjs"
      },
      "geometry": {
        "type": "LineString",
        "coordinates": [
          [
            139.715797,
            35.634071,
            61.5
          ],
          [
            139.716007,
            35.633237,
            60.34
          ],
          [
            139.716314,
            35.631843,
            59.17
          ],
          [
            139.716461,
            35.631445,
            58.01
          ],
          [
            139.716617,
            35.631126,
            56.85
          ],
          [
            139.716749,
            35.630903,
            55.68
          ],
          [
            139.716893,
            35.630699,
            54.52
          ],
          [
            139.717219,
            35.630336,
            53.36
          ],
          [
            139.717426,
            35.630146,
            52.19
          ],
          [
            139.717649,
            35.629974,
            51.03
          ],
          [
            139.718103,
            35.629677,
            49.87
          ],
          [
            139.718379,
            35.62953,
            48.71
          ],
          [
            139.721134,
            35.628301,
            47.54
          ],
          [
            139.721818,
            35.627944,
            46.38
          ],
          [
            139.722157,
            35.627732,
            45.22
          ],
          [
            139.722761,
            35.627267,
            44.05
          ],
          [
            139.723066,
            35.626991,
            42.89
          ],
          [
            139.723332,
            35.626731,
            41.73
          ],
          [
            139.723589,
            35.626435,
            40.56
          ],
          [
            139.723693,
            35.62629,
            39.4
          ]
        ]
      }
    }
  ]
}
