{
  "type": "FeatureCollection",
  "name": "yamanote-mejiro-takadanobaba",
  "features": [
    {
      "type": "Feature",
      "properties": {
        "line": "JR山手線 / Yamanote Line",
        "from": "Mejiro (JY14)",
        "to": "Takadanobaba (JY15)",
        "segment": 13,
        "direction": "inner (内回り)",
        "altitude": "ellipsoidal metres (JGD2011 / GRS80), approximate rail head",
        "source": "OpenStreetMap (data/geo/yamanote-loop.geojson, relation 5376382)",
        "license": "ODbL 1.0",
        "attribution": "© les contributeurs OpenStreetMap - https://www.openstreetmap.org/copyright",
        "approximate": false,
        "note": "Tracé découpé depuis la polyligne réelle de la boucle (chantier 1).",
        "lengthMeters": 977.5,
        "generatedBy": "scripts/plateau/fetch-route.mjs"
      },
      "geometry": {
        "type": "LineString",
        "coordinates": [
          [
            139.706516,
            35.721178,
            66.1
          ],
          [
            139.705597,
            35.718548,
            62.7
          ],
          [
            139.704816,
            35.715956,
            59.3
          ],
          [
            139.703685,
            35.712677,
            55.9
          ]
        ]
      }
    }
  ]
}
