{
  "type": "FeatureCollection",
  "name": "yamanote-nippori-nishi-nippori",
  "features": [
    {
      "type": "Feature",
      "properties": {
        "line": "JR山手線 / Yamanote Line",
        "from": "Nippori (JY07)",
        "to": "Nishi-Nippori (JY08)",
        "segment": 6,
        "direction": "inner (内回り)",
        "altitude": "ellipsoidal metres (JGD2011 / GRS80), approximate rail head",
        "source": "OpenStreetMap (data/geo/yamanote-loop.geojson, relation 5376382)",
        "license": "ODbL 1.0",
        "attribution": "© les contributeurs OpenStreetMap - https://www.openstreetmap.org/copyright",
        "approximate": false,
        "note": "Tracé découpé depuis la polyligne réelle de la boucle (chantier 1).",
        "lengthMeters": 580.3,
        "generatedBy": "scripts/plateau/fetch-route.mjs"
      },
      "geometry": {
        "type": "LineString",
        "coordinates": [
          [
            139.770404,
            35.72797,
            53.7
          ],
          [
            139.76977,
            35.728514,
            52.46
          ],
          [
            139.769251,
            35.729016,
            51.22
          ],
          [
            139.768968,
            35.729326,
            49.98
          ],
          [
            139.767345,
            35.731219,
            48.74
          ],
          [
            139.766641,
            35.732189,
            47.5
          ]
        ]
      }
    }
  ]
}
