{
  "type": "FeatureCollection",
  "name": "yamanote-nishi-nippori-tabata",
  "features": [
    {
      "type": "Feature",
      "properties": {
        "line": "JR山手線 / Yamanote Line",
        "from": "Nishi-Nippori (JY08)",
        "to": "Tabata (JY09)",
        "segment": 7,
        "direction": "inner (内回り)",
        "altitude": "ellipsoidal metres (JGD2011 / GRS80), approximate rail head",
        "source": "OpenStreetMap (data/geo/yamanote-loop.geojson, relation 5376382)",
        "license": "ODbL 1.0",
        "attribution": "© les contributeurs OpenStreetMap - https://www.openstreetmap.org/copyright",
        "approximate": false,
        "note": "Tracé découpé depuis la polyligne réelle de la boucle (chantier 1).",
        "lengthMeters": 730.7,
        "generatedBy": "scripts/plateau/fetch-route.mjs"
      },
      "geometry": {
        "type": "LineString",
        "coordinates": [
          [
            139.766641,
            35.732189,
            47.5
          ],
          [
            139.765831,
            35.733354,
            47.39
          ],
          [
            139.765325,
            35.733961,
            47.27
          ],
          [
            139.765077,
            35.734223,
            47.16
          ],
          [
            139.763932,
            35.735352,
            47.04
          ],
          [
            139.762779,
            35.736381,
            46.93
          ],
          [
            139.762403,
            35.736754,
            46.81
          ],
          [
            139.76169,
            35.73736,
            46.7
          ]
        ]
      }
    }
  ]
}
