{
  "type": "FeatureCollection",
  "name": "yamanote-okachimachi-ueno",
  "features": [
    {
      "type": "Feature",
      "properties": {
        "line": "JR山手線 / Yamanote Line",
        "from": "Okachimachi (JY04)",
        "to": "Ueno (JY05)",
        "segment": 3,
        "direction": "inner (内回り)",
        "altitude": "ellipsoidal metres (JGD2011 / GRS80), approximate rail head",
        "source": "OpenStreetMap (data/geo/yamanote-loop.geojson, relation 5376382)",
        "license": "ODbL 1.0",
        "attribution": "© les contributeurs OpenStreetMap - https://www.openstreetmap.org/copyright",
        "approximate": false,
        "note": "Tracé découpé depuis la polyligne réelle de la boucle (chantier 1).",
        "lengthMeters": 770.2,
        "generatedBy": "scripts/plateau/fetch-route.mjs"
      },
      "geometry": {
        "type": "LineString",
        "coordinates": [
          [
            139.77461,
            35.706955,
            49
          ],
          [
            139.774864,
            35.708439,
            49.45
          ],
          [
            139.774882,
            35.708686,
            49.89
          ],
          [
            139.774866,
            35.709217,
            50.34
          ],
          [
            139.774696,
            35.710095,
            50.78
          ],
          [
            139.774655,
            35.710405,
            51.23
          ],
          [
            139.774642,
            35.710701,
            51.67
          ],
          [
            139.774672,
            35.711096,
            52.12
          ],
          [
            139.774752,
            35.71143,
            52.56
          ],
          [
            139.774852,
            35.711686,
            53.01
          ],
          [
            139.774981,
            35.711934,
            53.45
          ],
          [
            139.776084,
            35.7136,
            53.9
          ]
        ]
      }
    }
  ]
}
