{
  "type": "FeatureCollection",
  "name": "yamanote-osaki-shinagawa",
  "features": [
    {
      "type": "Feature",
      "properties": {
        "line": "JR山手線 / Yamanote Line",
        "from": "Osaki (JY24)",
        "to": "Shinagawa (JY25)",
        "segment": 23,
        "direction": "inner (内回り)",
        "altitude": "ellipsoidal metres (JGD2011 / GRS80), approximate rail head",
        "source": "OpenStreetMap (data/geo/yamanote-loop.geojson, relation 5376382)",
        "license": "ODbL 1.0",
        "attribution": "© les contributeurs OpenStreetMap - https://www.openstreetmap.org/copyright",
        "approximate": false,
        "note": "Tracé découpé depuis la polyligne réelle de la boucle (chantier 1).",
        "lengthMeters": 2059,
        "generatedBy": "scripts/plateau/fetch-route.mjs"
      },
      "geometry": {
        "type": "LineString",
        "coordinates": [
          [
            139.72879,
            35.619535,
            43.4
          ],
          [
            139.729053,
            35.619146,
            43.35
          ],
          [
            139.729651,
            35.618326,
            43.3
          ],
          [
            139.729895,
            35.618043,
            43.25
          ],
          [
            139.730278,
            35.617698,
            43.19
          ],
          [
            139.730696,
            35.617415,
            43.14
          ],
          [
            139.730937,
            35.617291,
            43.09
          ],
          [
            139.731442,
            35.617092,
            43.04
          ],
          [
            139.731743,
            35.617003,
            42.99
          ],
          [
            139.731996,
            35.616949,
            42.94
          ],
          [
            139.732302,
            35.616901,
            42.88
          ],
          [
            139.732595,
            35.616875,
            42.83
          ],
          [
            139.732786,
            35.616866,
            42.78
          ],
          [
            139.733194,
            35.616877,
            42.73
          ],
          [
            139.73373,
            35.616939,
            42.68
          ],
          [
            139.734418,
            35.617089,
            42.63
          ],
          [
            139.734934,
            35.617256,
            42.58
          ],
          [
            139.735382,
            35.61747,
            42.52
          ],
          [
            139.735751,
            35.617701,
            42.47
          ],
          [
            139.736156,
            35.618019,
            42.42
          ],
          [
            139.736332,
            35.618185,
            42.37
          ],
          [
            139.736671,
            35.618564,
            42.32
          ],
          [
            139.736966,
            35.619023,
            42.27
          ],
          [
            139.737083,
            35.619257,
            42.22
          ],
          [
            139.737315,
            35.619997,
            42.16
          ],
          [
            139.73832,
            35.62363,
            42.11
          ],
          [
            139.738603,
            35.624787,
            42.06
          ],
          [
            139.73866,
            35.625079,
            42.01
          ],
          [
            139.738703,
            35.625568,
            41.96
          ],
          [
            139.738694,
            35.626055,
            41.91
          ],
          [
            139.738637,
            35.626461,
            41.85
          ],
          [
            139.738516,
            35.627029,
            41.8
          ],
          [
            139.738408,
            35.627672,
            41.75
          ],
          [
            139.738352,
            35.62865,
            41.7
          ]
        ]
      }
    }
  ]
}
