{
  "type": "FeatureCollection",
  "name": "yamanote-otsuka-ikebukuro",
  "features": [
    {
      "type": "Feature",
      "properties": {
        "line": "JR山手線 / Yamanote Line",
        "from": "Otsuka (JY12)",
        "to": "Ikebukuro (JY13)",
        "segment": 11,
        "direction": "inner (内回り)",
        "altitude": "ellipsoidal metres (JGD2011 / GRS80), approximate rail head",
        "source": "OpenStreetMap (data/geo/yamanote-loop.geojson, relation 5376382)",
        "license": "ODbL 1.0",
        "attribution": "© les contributeurs OpenStreetMap - https://www.openstreetmap.org/copyright",
        "approximate": false,
        "note": "Tracé découpé depuis la polyligne réelle de la boucle (chantier 1).",
        "lengthMeters": 1892.8,
        "generatedBy": "scripts/plateau/fetch-route.mjs"
      },
      "geometry": {
        "type": "LineString",
        "coordinates": [
          [
            139.728585,
            35.731635,
            57.4
          ],
          [
            139.726916,
            35.732068,
            57.91
          ],
          [
            139.720323,
            35.733832,
            58.42
          ],
          [
            139.718215,
            35.73438,
            58.93
          ],
          [
            139.717517,
            35.734533,
            59.44
          ],
          [
            139.717092,
            35.734586,
            59.95
          ],
          [
            139.716372,
            35.734601,
            60.46
          ],
          [
            139.716082,
            35.734579,
            60.97
          ],
          [
            139.715808,
            35.734553,
            61.48
          ],
          [
            139.715273,
            35.734458,
            61.99
          ],
          [
            139.714704,
            35.734307,
            62.5
          ],
          [
            139.71423,
            35.734143,
            63
          ],
          [
            139.714024,
            35.734062,
            63.51
          ],
          [
            139.713536,
            35.733784,
            64.02
          ],
          [
            139.713212,
            35.733567,
            64.53
          ],
          [
            139.713054,
            35.733438,
            65.04
          ],
          [
            139.71277,
            35.733173,
            65.55
          ],
          [
            139.712596,
            35.732973,
            66.06
          ],
          [
            139.71243,
            35.732761,
            66.57
          ],
          [
            139.712089,
            35.732269,
            67.08
          ],
          [
            139.711905,
            35.731963,
            67.59
          ],
          [
            139.710986,
            35.730244,
            68.1
          ]
        ]
      }
    }
  ]
}
