{
  "type": "FeatureCollection",
  "name": "yamanote-shibuya-ebisu",
  "features": [
    {
      "type": "Feature",
      "properties": {
        "line": "JR山手線 / Yamanote Line",
        "from": "Shibuya (JY20)",
        "to": "Ebisu (JY21)",
        "segment": 19,
        "direction": "inner (内回り)",
        "altitude": "ellipsoidal metres (JGD2011 / GRS80), approximate rail head",
        "source": "OpenStreetMap (data/geo/yamanote-loop.geojson, relation 5376382)",
        "license": "ODbL 1.0",
        "attribution": "© les contributeurs OpenStreetMap - https://www.openstreetmap.org/copyright",
        "approximate": false,
        "note": "Tracé découpé depuis la polyligne réelle de la boucle (chantier 1).",
        "lengthMeters": 1509.4,
        "generatedBy": "scripts/plateau/fetch-route.mjs"
      },
      "geometry": {
        "type": "LineString",
        "coordinates": [
          [
            139.701751,
            35.658075,
            66.4
          ],
          [
            139.702338,
            35.657077,
            67.09
          ],
          [
            139.702683,
            35.656593,
            67.78
          ],
          [
            139.704625,
            35.654365,
            68.48
          ],
          [
            139.70538,
            35.653669,
            69.17
          ],
          [
            139.705751,
            35.653281,
            69.86
          ],
          [
            139.70719,
            35.651628,
            70.55
          ],
          [
            139.707629,
            35.651087,
            71.25
          ],
          [
            139.707849,
            35.650773,
            71.94
          ],
          [
            139.708199,
            35.650194,
            72.63
          ],
          [
            139.709211,
            35.648348,
            73.32
          ],
          [
            139.709399,
            35.647984,
            74.02
          ],
          [
            139.709749,
            35.647216,
            74.71
          ],
          [
            139.71019,
            35.646435,
            75.4
          ]
        ]
      }
    }
  ]
}
