{
  "type": "FeatureCollection",
  "name": "yamanote-shin-okubo-shinjuku",
  "features": [
    {
      "type": "Feature",
      "properties": {
        "line": "JR山手線 / Yamanote Line",
        "from": "Shin-Okubo (JY16)",
        "to": "Shinjuku (JY17)",
        "segment": 15,
        "direction": "inner (内回り)",
        "altitude": "ellipsoidal metres (JGD2011 / GRS80), approximate rail head",
        "source": "OpenStreetMap (data/geo/yamanote-loop.geojson, relation 5376382)",
        "license": "ODbL 1.0",
        "attribution": "© les contributeurs OpenStreetMap - https://www.openstreetmap.org/copyright",
        "approximate": false,
        "note": "Tracé découpé depuis la polyligne réelle de la boucle (chantier 1).",
        "lengthMeters": 1383,
        "generatedBy": "scripts/plateau/fetch-route.mjs"
      },
      "geometry": {
        "type": "LineString",
        "coordinates": [
          [
            139.700296,
            35.701298,
            67.4
          ],
          [
            139.700026,
            35.698578,
            67.99
          ],
          [
            139.699911,
            35.69792,
            68.58
          ],
          [
            139.699437,
            35.696338,
            69.18
          ],
          [
            139.699365,
            35.695903,
            69.77
          ],
          [
            139.699355,
            35.695656,
            70.36
          ],
          [
            139.699364,
            35.695384,
            70.95
          ],
          [
            139.699429,
            35.694944,
            71.55
          ],
          [
            139.699993,
            35.69266,
            72.14
          ],
          [
            139.700035,
            35.692192,
            72.73
          ],
          [
            139.70002,
            35.691111,
            73.32
          ],
          [
            139.700051,
            35.690472,
            73.92
          ],
          [
            139.700165,
            35.689638,
            74.51
          ],
          [
            139.700331,
            35.688969,
            75.1
          ]
        ]
      }
    }
  ]
}
