{
  "type": "FeatureCollection",
  "name": "yamanote-shinjuku-yoyogi",
  "features": [
    {
      "type": "Feature",
      "properties": {
        "line": "JR山手線 / Yamanote Line",
        "from": "Shinjuku (JY17)",
        "to": "Yoyogi (JY18)",
        "segment": 16,
        "direction": "inner (内回り)",
        "altitude": "ellipsoidal metres (JGD2011 / GRS80), approximate rail head",
        "source": "OpenStreetMap (data/geo/yamanote-loop.geojson, relation 5376382)",
        "license": "ODbL 1.0",
        "attribution": "© les contributeurs OpenStreetMap - https://www.openstreetmap.org/copyright",
        "approximate": false,
        "note": "Tracé découpé depuis la polyligne réelle de la boucle (chantier 1).",
        "lengthMeters": 579.3,
        "generatedBy": "scripts/plateau/fetch-route.mjs"
      },
      "geometry": {
        "type": "LineString",
        "coordinates": [
          [
            139.700331,
            35.688969,
            75.1
          ],
          [
            139.700578,
            35.688042,
            74.7
          ],
          [
            139.700923,
            35.687206,
            74.3
          ],
          [
            139.701217,
            35.686254,
            73.9
          ],
          [
            139.701751,
            35.684978,
            73.5
          ],
          [
            139.701866,
            35.68461,
            73.1
          ],
          [
            139.702035,
            35.683944,
            72.7
          ]
        ]
      }
    }
  ]
}
