{
  "type": "FeatureCollection",
  "name": "yamanote-sugamo-otsuka",
  "features": [
    {
      "type": "Feature",
      "properties": {
        "line": "JR山手線 / Yamanote Line",
        "from": "Sugamo (JY11)",
        "to": "Otsuka (JY12)",
        "segment": 10,
        "direction": "inner (内回り)",
        "altitude": "ellipsoidal metres (JGD2011 / GRS80), approximate rail head",
        "source": "OpenStreetMap (data/geo/yamanote-loop.geojson, relation 5376382)",
        "license": "ODbL 1.0",
        "attribution": "© les contributeurs OpenStreetMap - https://www.openstreetmap.org/copyright",
        "approximate": false,
        "note": "Tracé découpé depuis la polyligne réelle de la boucle (chantier 1).",
        "lengthMeters": 1056.7,
        "generatedBy": "scripts/plateau/fetch-route.mjs"
      },
      "geometry": {
        "type": "LineString",
        "coordinates": [
          [
            139.739457,
            35.733358,
            61
          ],
          [
            139.738849,
            35.733119,
            61
          ],
          [
            139.736927,
            35.73228,
            61
          ],
          [
            139.734926,
            35.731445,
            61
          ],
          [
            139.734314,
            35.731215,
            61
          ],
          [
            139.734032,
            35.731129,
            61
          ],
          [
            139.7335,
            35.731004,
            61
          ],
          [
            139.732918,
            35.730927,
            61
          ],
          [
            139.732333,
            35.730896,
            61
          ],
          [
            139.73202,
            35.730898,
            61
          ],
          [
            139.731435,
            35.73095,
            61
          ],
          [
            139.730781,
            35.731085,
            61
          ],
          [
            139.728585,
            35.731635,
            61
          ]
        ]
      }
    }
  ]
}
