{
  "type": "FeatureCollection",
  "name": "yamanote-takadanobaba-shin-okubo",
  "features": [
    {
      "type": "Feature",
      "properties": {
        "line": "JR山手線 / Yamanote Line",
        "from": "Takadanobaba (JY15)",
        "to": "Shin-Okubo (JY16)",
        "segment": 14,
        "direction": "inner (内回り)",
        "altitude": "ellipsoidal metres (JGD2011 / GRS80), approximate rail head",
        "source": "OpenStreetMap (data/geo/yamanote-loop.geojson, relation 5376382)",
        "license": "ODbL 1.0",
        "attribution": "© les contributeurs OpenStreetMap - https://www.openstreetmap.org/copyright",
        "approximate": false,
        "note": "Tracé découpé depuis la polyligne réelle de la boucle (chantier 1).",
        "lengthMeters": 1303,
        "generatedBy": "scripts/plateau/fetch-route.mjs"
      },
      "geometry": {
        "type": "LineString",
        "coordinates": [
          [
            139.703685,
            35.712677,
            55.9
          ],
          [
            139.70211,
            35.708233,
            58.2
          ],
          [
            139.700703,
            35.704192,
            60.5
          ],
          [
            139.700559,
            35.70363,
            62.8
          ],
          [
            139.70049,
            35.703224,
            65.1
          ],
          [
            139.700296,
            35.701298,
            67.4
          ]
        ]
      }
    }
  ]
}
