{
  "type": "FeatureCollection",
  "name": "yamanote-ueno-uguisudani",
  "features": [
    {
      "type": "Feature",
      "properties": {
        "line": "JR山手線 / Yamanote Line",
        "from": "Ueno (JY05)",
        "to": "Uguisudani (JY06)",
        "segment": 4,
        "direction": "inner (内回り)",
        "altitude": "ellipsoidal metres (JGD2011 / GRS80), approximate rail head",
        "source": "OpenStreetMap (data/geo/yamanote-loop.geojson, relation 5376382)",
        "license": "ODbL 1.0",
        "attribution": "© les contributeurs OpenStreetMap - https://www.openstreetmap.org/copyright",
        "approximate": false,
        "note": "Tracé découpé depuis la polyligne réelle de la boucle (chantier 1).",
        "lengthMeters": 1043.6,
        "generatedBy": "scripts/plateau/fetch-route.mjs"
      },
      "geometry": {
        "type": "LineString",
        "coordinates": [
          [
            139.776084,
            35.7136,
            46.5
          ],
          [
            139.776595,
            35.714298,
            46.49
          ],
          [
            139.777591,
            35.715534,
            46.47
          ],
          [
            139.779225,
            35.717383,
            46.46
          ],
          [
            139.779371,
            35.717598,
            46.44
          ],
          [
            139.779482,
            35.717814,
            46.43
          ],
          [
            139.779635,
            35.718214,
            46.41
          ],
          [
            139.77968,
            35.718414,
            46.4
          ],
          [
            139.779722,
            35.718862,
            46.39
          ],
          [
            139.779715,
            35.719107,
            46.37
          ],
          [
            139.779634,
            35.719527,
            46.36
          ],
          [
            139.779479,
            35.719935,
            46.34
          ],
          [
            139.77931,
            35.720222,
            46.33
          ],
          [
            139.779189,
            35.720372,
            46.31
          ],
          [
            139.777904,
            35.721695,
            46.3
          ]
        ]
      }
    }
  ]
}
