{
 "type": "FeatureCollection",
 "name": "yamanote-water",
 "properties": {
  "layer": "DATA_STATIC",
  "source": "OpenStreetMap",
  "sourceId": "osm",
  "license": "ODbL 1.0",
  "attribution": "© les contributeurs OpenStreetMap",
  "sourceUrl": "https://www.openstreetmap.org/copyright",
  "datasetDate": "2026-08-02",
  "verifiedAt": "2026-08-06",
  "measured": true,
  "note": "Traversées de cours d’eau de l’axe relevé des voies, et distance au trait de côte. Les largeurs marquées measured:true sont mesurées dans l’axe de la voie sur le polygone du plan d’eau ; les autres sont estimées d’après le type de cours d’eau (règle 11).",
  "generatedBy": "scripts/geo/fetch-water.mjs",
  "shoreReach": 3000,
  "fieldRows": 861,
  "fieldCols": 21
 },
 "features": [
  {
   "type": "Feature",
   "properties": {
    "s": 740.2,
    "segment": 0,
    "fraction": 0.5998,
    "name": "日本橋川",
    "nameEn": "Nihonbashi River",
    "waterway": "river",
    "hidden": false,
    "width": 39,
    "measured": true,
    "lon": 139.769226,
    "lat": 35.687561,
    "x": 239.2,
    "z": -700.1,
    "nearStation": "Kanda",
    "nearStationIndex": 1,
    "metersFromStation": -494,
    "osmWay": 254328040
   },
   "geometry": {
    "type": "Point",
    "coordinates": [
     139.769226,
     35.687561
    ]
   }
  },
  {
   "type": "Feature",
   "properties": {
    "s": 1836.4,
    "segment": 1,
    "fraction": 0.796,
    "name": "神田川",
    "nameEn": "Kanda River",
    "waterway": "river",
    "hidden": false,
    "width": 28.5,
    "measured": true,
    "lon": 139.772837,
    "lat": 35.696974,
    "x": 563.2,
    "z": -1745.3,
    "nearStation": "Akihabara",
    "nearStationIndex": 2,
    "metersFromStation": -154,
    "osmWay": 265221591
   },
   "geometry": {
    "type": "Point",
    "coordinates": [
     139.772837,
     35.696974
    ]
   }
  },
  {
   "type": "Feature",
   "properties": {
    "s": 14025.4,
    "segment": 13,
    "fraction": 0.6098,
    "name": "妙正寺川",
    "nameEn": "Myoshoji River",
    "waterway": "river",
    "hidden": true,
    "width": 20,
    "measured": false,
    "lon": 139.704825,
    "lat": 35.715987,
    "x": -5596.2,
    "z": -3839.7,
    "nearStation": "Takadanobaba",
    "nearStationIndex": 14,
    "metersFromStation": -381,
    "osmWay": 193336473
   },
   "geometry": {
    "type": "Point",
    "coordinates": [
     139.704825,
     35.715987
    ]
   }
  },
  {
   "type": "Feature",
   "properties": {
    "s": 14171.4,
    "segment": 13,
    "fraction": 0.7592,
    "name": "神田川",
    "nameEn": "Kanda River",
    "waterway": "river",
    "hidden": false,
    "width": 11.5,
    "measured": true,
    "lon": 139.704389,
    "lat": 35.714719,
    "x": -5635.4,
    "z": -3699,
    "nearStation": "Takadanobaba",
    "nearStationIndex": 14,
    "metersFromStation": -235,
    "osmWay": 291558854
   },
   "geometry": {
    "type": "Point",
    "coordinates": [
     139.704389,
     35.714719
    ]
   }
  },
  {
   "type": "Feature",
   "properties": {
    "s": 19096.1,
    "segment": 17,
    "fraction": 0.9118,
    "name": null,
    "nameEn": null,
    "waterway": "stream",
    "hidden": true,
    "width": 5,
    "measured": false,
    "lon": 139.702739,
    "lat": 35.671439,
    "x": -5774.8,
    "z": 1102.9,
    "nearStation": "Harajuku",
    "nearStationIndex": 18,
    "metersFromStation": -138,
    "osmWay": 1049864485
   },
   "geometry": {
    "type": "Point",
    "coordinates": [
     139.702739,
     35.671439
    ]
   }
  },
  {
   "type": "Feature",
   "properties": {
    "s": 20331.9,
    "segment": 18,
    "fraction": 0.8075,
    "name": "宇田川暗渠（宇田川幹線）",
    "nameEn": "Udagawa Culvert",
    "waterway": "river",
    "hidden": true,
    "width": 20,
    "measured": false,
    "lon": 139.701278,
    "lat": 35.66037,
    "x": -5904.5,
    "z": 2331.2,
    "nearStation": "Shibuya",
    "nearStationIndex": 19,
    "metersFromStation": -262,
    "osmWay": 201531537
   },
   "geometry": {
    "type": "Point",
    "coordinates": [
     139.701278,
     35.66037
    ]
   }
  },
  {
   "type": "Feature",
   "properties": {
    "s": 25015.4,
    "segment": 22,
    "fraction": 0.2873,
    "name": "目黒川",
    "nameEn": "Meguro River",
    "waterway": "river",
    "hidden": false,
    "width": 30,
    "measured": true,
    "lon": 139.725075,
    "lat": 35.624308,
    "x": -3740.8,
    "z": 6327.3,
    "nearStation": "Gotanda",
    "nearStationIndex": 22,
    "metersFromStation": 253,
    "osmWay": 49683811
   },
   "geometry": {
    "type": "Point",
    "coordinates": [
     139.725075,
     35.624308
    ]
   }
  },
  {
   "type": "Feature",
   "properties": {
    "s": 26323.7,
    "segment": 23,
    "fraction": 0.3306,
    "name": "目黒川",
    "nameEn": "Meguro River",
    "waterway": "river",
    "hidden": false,
    "width": 23,
    "measured": true,
    "lon": 139.734768,
    "lat": 35.617202,
    "x": -2860.9,
    "z": 7113.6,
    "nearStation": "Osaki",
    "nearStationIndex": 23,
    "metersFromStation": 681,
    "osmWay": 229854235
   },
   "geometry": {
    "type": "Point",
    "coordinates": [
     139.734768,
     35.617202
    ]
   }
  },
  {
   "type": "Feature",
   "properties": {
    "s": 31028.6,
    "segment": 26,
    "fraction": 0.8241,
    "name": "古川",
    "nameEn": "Furukawa River",
    "waterway": "river",
    "hidden": false,
    "width": 20,
    "measured": false,
    "lon": 139.756447,
    "lat": 35.652913,
    "x": -907.3,
    "z": 3146.9,
    "nearStation": "Hamamatsucho",
    "nearStationIndex": 27,
    "metersFromStation": -250,
    "osmWay": 1324686005
   },
   "geometry": {
    "type": "Point",
    "coordinates": [
     139.756447,
     35.652913
    ]
   }
  }
 ],
 "shore": {
  "step": 39.982,
  "rows": 861,
  "left": [
   0,
   0,
   0,
   0,
   0,
   0,
   0,
   0,
   0,
   0,
   0,
   0,
   0,
   0,
   0,
   0,
   0,
   0,
   0,
   0,
   0,
   0,
   0,
   0,
   0,
   0,
   0,
   0,
   0,
   0,
   0,
   0,
   0,
   0,
   0,
   0,
   0,
   0,
   0,
   0,
   0,
   0,
   0,
   0,
   0,
   0,
   0,
   0,
   0,
   0,
   0,
   0,
   0,
   0,
   0,
   0,
   0,
   0,
   0,
   0,
   0,
   0,
   0,
   0,
   0,
   0,
   0,
   0,
   0,
   0,
   0,
   0,
   0,
   0,
   0,
   0,
   0,
   0,
   0,
   0,
   0,
   0,
   0,
   0,
   0,
   0,
   0,
   0,
   0,
   0,
   0,
   0,
   0,
   0,
   0,
   0,
   0,
   0,
   0,
   0,
   0,
   0,
   0,
   0,
   0,
   0,
   0,
   0,
   0,
   0,
   0,
   0,
   0,
   0,
   0,
   0,
   0,
   0,
   0,
   0,
   0,
   0,
   0,
   0,
   0,
   0,
   0,
   0,
   0,
   0,
   0,
   0,
   0,
   0,
   0,
   0,
   0,
   0,
   0,
   0,
   0,
   0,
   0,
   0,
   0,
   0,
   0,
   0,
   0,
   0,
   0,
   0,
   0,
   0,
   0,
   0,
   0,
   0,
   0,
   0,
   0,
   0,
   0,
   0,
   0,
   0,
   0,
   0,
   0,
   0,
   0,
   0,
   0,
   0,
   0,
   0,
   0,
   0,
   0,
   0,
   0,
   0,
   0,
   0,
   0,
   0,
   0,
   0,
   0,
   0,
   0,
   0,
   0,
   0,
   0,
   0,
   0,
   0,
   0,
   0,
   0,
   0,
   0,
   0,
   0,
   0,
   0,
   0,
   0,
   0,
   0,
   0,
   0,
   0,
   0,
   0,
   0,
   0,
   0,
   0,
   0,
   0,
   0,
   0,
   0,
   0,
   0,
   0,
   0,
   0,
   0,
   0,
   0,
   0,
   0,
   0,
   0,
   0,
   0,
   0,
   0,
   0,
   0,
   0,
   0,
   0,
   0,
   0,
   0,
   0,
   0,
   0,
   0,
   0,
   0,
   0,
   0,
   0,
   0,
   0,
   0,
   0,
   0,
   0,
   0,
   0,
   0,
   0,
   0,
   0,
   0,
   0,
   0,
   0,
   0,
   0,
   0,
   0,
   0,
   0,
   0,
   0,
   0,
   0,
   0,
   0,
   0,
   0,
   0,
   0,
   0,
   0,
   0,
   0,
   0,
   0,
   0,
   0,
   0,
   0,
   0,
   0,
   0,
   0,
   0,
   0,
   0,
   0,
   0,
   0,
   0,
   0,
   0,
   0,
   0,
   0,
   0,
   0,
   0,
   0,
   0,
   0,
   0,
   0,
   0,
   0,
   0,
   0,
   0,
   0,
   0,
   0,
   0,
   0,
   0,
   0,
   0,
   0,
   0,
   0,
   0,
   0,
   0,
   0,
   0,
   0,
   0,
   0,
   0,
   0,
   0,
   0,
   0,
   0,
   0,
   0,
   0,
   0,
   0,
   0,
   0,
   0,
   0,
   0,
   0,
   0,
   0,
   0,
   0,
   0,
   0,
   0,
   0,
   0,
   0,
   0,
   0,
   0,
   0,
   0,
   0,
   0,
   0,
   0,
   0,
   0,
   0,
   0,
   0,
   0,
   0,
   0,
   0,
   0,
   0,
   0,
   0,
   0,
   0,
   0,
   0,
   0,
   0,
   0,
   0,
   0,
   0,
   0,
   0,
   0,
   0,
   0,
   0,
   0,
   0,
   0,
   0,
   0,
   0,
   0,
   0,
   0,
   0,
   0,
   0,
   0,
   0,
   0,
   0,
   0,
   0,
   0,
   0,
   0,
   0,
   0,
   0,
   0,
   0,
   0,
   0,
   0,
   0,
   0,
   0,
   0,
   0,
   0,
   0,
   0,
   0,
   0,
   0,
   0,
   0,
   0,
   0,
   0,
   0,
   0,
   0,
   0,
   0,
   0,
   0,
   0,
   0,
   0,
   0,
   0,
   0,
   0,
   0,
   0,
   0,
   0,
   0,
   0,
   0,
   0,
   0,
   0,
   0,
   0,
   0,
   0,
   0,
   0,
   0,
   0,
   0,
   0,
   0,
   0,
   0,
   0,
   0,
   0,
   0,
   0,
   0,
   0,
   0,
   0,
   0,
   0,
   0,
   0,
   0,
   0,
   0,
   0,
   0,
   0,
   0,
   0,
   0,
   0,
   0,
   0,
   0,
   0,
   0,
   0,
   0,
   0,
   0,
   0,
   0,
   0,
   0,
   0,
   0,
   0,
   0,
   0,
   0,
   0,
   0,
   0,
   0,
   0,
   0,
   0,
   0,
   0,
   0,
   0,
   0,
   0,
   0,
   0,
   0,
   0,
   0,
   0,
   0,
   0,
   0,
   0,
   0,
   0,
   0,
   0,
   0,
   0,
   0,
   0,
   0,
   0,
   0,
   0,
   0,
   0,
   0,
   0,
   0,
   0,
   0,
   0,
   0,
   0,
   0,
   0,
   0,
   0,
   0,
   0,
   0,
   0,
   0,
   0,
   0,
   0,
   0,
   0,
   0,
   0,
   0,
   0,
   0,
   0,
   0,
   0,
   0,
   0,
   0,
   0,
   0,
   2998,
   2968,
   2938,
   2910,
   2883,
   2858,
   2837,
   2817,
   2800,
   2786,
   2774,
   2767,
   2759,
   2753,
   2748,
   2744,
   2739,
   2735,
   2730,
   2726,
   2723,
   2720,
   2717,
   2715,
   2714,
   2713,
   2713,
   2713,
   2712,
   2711,
   2711,
   2713,
   2717,
   2722,
   2728,
   2734,
   2734,
   2713,
   2689,
   2662,
   2632,
   2599,
   2561,
   2522,
   2483,
   2449,
   2579,
   2541,
   2501,
   2461,
   2481,
   2444,
   2405,
   2365,
   2837,
   2797,
   0,
   0,
   0,
   0,
   0,
   0,
   0,
   0,
   0,
   0,
   0,
   0,
   0,
   0,
   0,
   0,
   0,
   0,
   0,
   0,
   0,
   0,
   0,
   0,
   0,
   0,
   0,
   0,
   0,
   0,
   0,
   0,
   0,
   0,
   0,
   0,
   0,
   0,
   0,
   0,
   0,
   0,
   0,
   0,
   0,
   0,
   0,
   0,
   0,
   0,
   0,
   0,
   0,
   0,
   0,
   0,
   0,
   0,
   0,
   0,
   0,
   0,
   0,
   0,
   0,
   0,
   0,
   0,
   0,
   0,
   0,
   0,
   0,
   0,
   0,
   0,
   0,
   0,
   0,
   0,
   0,
   0,
   0,
   0,
   0,
   0,
   0,
   0,
   0,
   0,
   0,
   0,
   0,
   0,
   0,
   0,
   0,
   0,
   0,
   0,
   0,
   0,
   0,
   0,
   0,
   0,
   0,
   0,
   0,
   0,
   0,
   0,
   0,
   0,
   0,
   0,
   0,
   0,
   0,
   0,
   0,
   0,
   0,
   0,
   0,
   0,
   0,
   0,
   0,
   0,
   0,
   0,
   0,
   2677,
   2717,
   2491,
   2531,
   2571,
   2611,
   1799,
   1839,
   1683,
   1722,
   1762,
   1802,
   1842,
   1882,
   1649,
   1689,
   2002,
   2042,
   2343,
   0,
   0,
   0,
   0,
   0,
   0,
   0,
   0,
   0,
   0,
   0,
   0,
   0,
   0,
   0,
   0,
   0,
   0,
   0,
   0,
   0,
   0,
   0,
   0,
   0,
   0,
   0,
   0,
   0,
   0,
   0,
   0,
   0,
   0,
   0,
   0,
   0,
   0,
   0,
   0,
   0,
   0,
   0,
   0
  ],
  "right": [
   0,
   0,
   0,
   0,
   0,
   0,
   0,
   0,
   0,
   0,
   0,
   0,
   0,
   0,
   0,
   0,
   0,
   0,
   0,
   0,
   0,
   0,
   0,
   0,
   0,
   0,
   0,
   0,
   0,
   0,
   0,
   0,
   0,
   0,
   0,
   0,
   0,
   0,
   0,
   0,
   0,
   0,
   0,
   0,
   0,
   0,
   0,
   0,
   0,
   0,
   0,
   0,
   0,
   0,
   0,
   0,
   0,
   0,
   0,
   0,
   0,
   0,
   0,
   0,
   0,
   0,
   0,
   0,
   0,
   0,
   0,
   0,
   0,
   0,
   0,
   0,
   0,
   0,
   0,
   0,
   0,
   0,
   0,
   0,
   0,
   0,
   0,
   0,
   0,
   0,
   0,
   0,
   0,
   0,
   0,
   0,
   0,
   0,
   0,
   0,
   0,
   0,
   0,
   0,
   0,
   0,
   0,
   0,
   0,
   0,
   0,
   0,
   0,
   0,
   0,
   0,
   0,
   0,
   0,
   0,
   0,
   0,
   0,
   0,
   0,
   0,
   0,
   0,
   0,
   0,
   0,
   0,
   0,
   0,
   0,
   0,
   0,
   0,
   0,
   0,
   0,
   0,
   0,
   0,
   0,
   0,
   0,
   0,
   0,
   0,
   0,
   0,
   0,
   0,
   0,
   0,
   0,
   0,
   0,
   0,
   0,
   0,
   0,
   0,
   0,
   0,
   0,
   0,
   0,
   0,
   0,
   0,
   0,
   0,
   0,
   0,
   0,
   0,
   0,
   0,
   0,
   0,
   0,
   0,
   0,
   0,
   0,
   0,
   0,
   0,
   0,
   0,
   0,
   0,
   0,
   0,
   0,
   0,
   0,
   0,
   0,
   0,
   0,
   0,
   0,
   0,
   0,
   0,
   0,
   0,
   0,
   0,
   0,
   0,
   0,
   0,
   0,
   0,
   0,
   0,
   0,
   0,
   0,
   0,
   0,
   0,
   0,
   0,
   0,
   0,
   0,
   0,
   0,
   0,
   0,
   0,
   0,
   0,
   0,
   0,
   0,
   0,
   0,
   0,
   0,
   0,
   0,
   0,
   0,
   0,
   0,
   0,
   0,
   0,
   0,
   0,
   0,
   0,
   0,
   0,
   0,
   0,
   0,
   0,
   0,
   0,
   0,
   0,
   0,
   0,
   0,
   0,
   0,
   0,
   0,
   0,
   0,
   0,
   0,
   0,
   0,
   0,
   0,
   0,
   0,
   0,
   0,
   0,
   0,
   0,
   0,
   0,
   0,
   0,
   0,
   0,
   0,
   0,
   0,
   0,
   0,
   0,
   0,
   0,
   0,
   0,
   0,
   0,
   0,
   0,
   0,
   0,
   0,
   0,
   0,
   0,
   0,
   0,
   0,
   0,
   0,
   0,
   0,
   0,
   0,
   0,
   0,
   0,
   0,
   0,
   0,
   0,
   0,
   0,
   0,
   0,
   0,
   0,
   0,
   0,
   0,
   0,
   0,
   0,
   0,
   0,
   0,
   0,
   0,
   0,
   0,
   0,
   0,
   0,
   0,
   0,
   0,
   0,
   0,
   0,
   0,
   0,
   0,
   0,
   0,
   0,
   0,
   0,
   0,
   0,
   0,
   0,
   0,
   0,
   0,
   0,
   0,
   0,
   0,
   0,
   0,
   0,
   0,
   0,
   0,
   0,
   0,
   0,
   0,
   0,
   0,
   0,
   0,
   0,
   0,
   0,
   0,
   0,
   0,
   0,
   0,
   0,
   0,
   0,
   0,
   0,
   0,
   0,
   0,
   0,
   0,
   0,
   0,
   0,
   0,
   0,
   0,
   0,
   0,
   0,
   0,
   0,
   0,
   0,
   0,
   0,
   0,
   0,
   0,
   0,
   0,
   0,
   0,
   0,
   0,
   0,
   0,
   0,
   0,
   0,
   0,
   0,
   0,
   0,
   0,
   0,
   0,
   0,
   0,
   0,
   0,
   0,
   0,
   0,
   0,
   0,
   0,
   0,
   0,
   0,
   0,
   0,
   0,
   0,
   0,
   0,
   0,
   0,
   0,
   0,
   0,
   0,
   0,
   0,
   0,
   0,
   0,
   0,
   0,
   0,
   0,
   0,
   0,
   0,
   0,
   0,
   0,
   0,
   0,
   0,
   0,
   0,
   0,
   0,
   0,
   0,
   0,
   0,
   0,
   0,
   0,
   0,
   0,
   0,
   0,
   0,
   0,
   0,
   0,
   0,
   0,
   0,
   0,
   0,
   0,
   0,
   0,
   0,
   0,
   0,
   0,
   0,
   0,
   0,
   0,
   0,
   0,
   0,
   0,
   0,
   0,
   0,
   0,
   0,
   0,
   0,
   0,
   0,
   0,
   0,
   0,
   0,
   0,
   0,
   0,
   0,
   0,
   0,
   0,
   0,
   0,
   0,
   0,
   0,
   0,
   0,
   0,
   0,
   0,
   0,
   0,
   0,
   0,
   0,
   0,
   0,
   0,
   0,
   0,
   0,
   0,
   0,
   0,
   0,
   0,
   0,
   0,
   0,
   0,
   0,
   0,
   0,
   0,
   0,
   0,
   0,
   0,
   0,
   0,
   0,
   0,
   0,
   0,
   0,
   0,
   0,
   0,
   0,
   0,
   0,
   0,
   0,
   0,
   0,
   0,
   0,
   0,
   0,
   0,
   0,
   0,
   0,
   0,
   0,
   0,
   0,
   0,
   0,
   0,
   0,
   0,
   0,
   0,
   0,
   0,
   0,
   0,
   0,
   0,
   0,
   0,
   0,
   0,
   0,
   0,
   0,
   0,
   0,
   0,
   0,
   0,
   0,
   0,
   0,
   0,
   0,
   0,
   0,
   0,
   0,
   0,
   0,
   2981,
   2941,
   2443,
   2403,
   2364,
   2327,
   2290,
   2253,
   2216,
   2183,
   2152,
   2123,
   2098,
   2077,
   2058,
   2046,
   2034,
   2024,
   2014,
   2004,
   1994,
   1960,
   1926,
   1892,
   1858,
   1824,
   1791,
   1758,
   1726,
   1694,
   1663,
   1633,
   1606,
   1581,
   1559,
   1540,
   1524,
   1508,
   1492,
   1474,
   1457,
   1440,
   1424,
   1407,
   1390,
   1369,
   1348,
   1324,
   1300,
   1277,
   1254,
   1233,
   1212,
   1193,
   1178,
   1164,
   1151,
   1140,
   1129,
   1116,
   1104,
   1092,
   1081,
   1072,
   1063,
   1054,
   1047,
   1042,
   1041,
   1042,
   1044,
   1047,
   1050,
   1055,
   1060,
   1069,
   1082,
   1094,
   1102,
   1109,
   1114,
   1117,
   1116,
   1114,
   1109,
   1103,
   1095,
   1083,
   1071,
   1058,
   1046,
   1036,
   1025,
   1015,
   1006,
   999,
   993,
   961,
   929,
   898,
   867,
   837,
   807,
   779,
   752,
   723,
   692,
   663,
   633,
   604,
   579,
   556,
   535,
   516,
   499,
   485,
   473,
   464,
   457,
   447,
   436,
   429,
   426,
   425,
   427,
   431,
   439,
   450,
   464,
   481,
   501,
   523,
   547,
   573,
   600,
   629,
   659,
   691,
   723,
   756,
   790,
   824,
   859,
   894,
   929,
   965,
   1002,
   1040,
   1077,
   1116,
   1155,
   1194,
   1233,
   1273,
   1313,
   1353,
   1393,
   1433,
   1473,
   1513,
   1552,
   1592,
   1632,
   1672,
   1712,
   1752,
   1791,
   1829,
   1867,
   1903,
   1938,
   1972,
   2006,
   2041,
   2076,
   2110,
   2146,
   2181,
   2216,
   2252,
   2287,
   2321,
   2354,
   2386,
   2416,
   2444,
   2471,
   2499,
   2527,
   2554,
   2582,
   2611,
   2639,
   2669,
   2700,
   2735,
   2771,
   2809,
   2847,
   2886,
   2925,
   2965,
   0,
   0,
   0,
   0,
   0,
   0,
   0
  ]
 }
}
