{
 "type": "FeatureCollection",
 "name": "yamanote-loop",
 "features": [
  {
   "type": "Feature",
   "properties": {
    "line": "JR山手線 / Yamanote Line",
    "relation": 5376382,
    "relationVersion": 57,
    "operator": "東日本旅客鉄道",
    "direction": "index JY croissants (外回り)",
    "lengthMeters": 34461,
    "vertexCount": 327,
    "simplifyMeters": 1,
    "projectedEpsg": 6677,
    "note": "Axe relevé des voies, recousu depuis la relation d’itinéraire OSM. Les trente sommets de gare sont la projection du milieu de quai publié sur cet axe : c’est la position du train à l’arrêt.",
    "layer": "DATA_STATIC",
    "source": "OpenStreetMap",
    "sourceId": "osm",
    "license": "ODbL 1.0",
    "attribution": "© les contributeurs OpenStreetMap",
    "sourceUrl": "https://www.openstreetmap.org/copyright",
    "datasetDate": "2026-06-09",
    "verifiedAt": "2026-08-06",
    "measured": true,
    "generatedBy": "scripts/geo/fetch-loop.mjs"
   },
   "geometry": {
    "type": "LineString",
    "coordinates": [
     [
      139.766562,
      35.681256
     ],
     [
      139.766829,
      35.681988
     ],
     [
      139.76762,
      35.68363
     ],
     [
      139.768151,
      35.684971
     ],
     [
      139.768476,
      35.685655
     ],
     [
      139.769397,
      35.687996
     ],
     [
      139.770965,
      35.691781
     ],
     [
      139.771126,
      35.692136
     ],
     [
      139.771879,
      35.693965
     ],
     [
      139.772226,
      35.69475
     ],
     [
      139.772505,
      35.695478
     ],
     [
      139.772641,
      35.695891
     ],
     [
      139.772731,
      35.696284
     ],
     [
      139.772807,
      35.696727
     ],
     [
      139.773008,
      35.698358
     ],
     [
      139.773431,
      35.701481
     ],
     [
      139.773523,
      35.701863
     ],
     [
      139.773987,
      35.703314
     ],
     [
      139.774056,
      35.703613
     ],
     [
      139.77461,
      35.706955
     ],
     [
      139.774864,
      35.708439
     ],
     [
      139.774882,
      35.708686
     ],
     [
      139.774866,
      35.709217
     ],
     [
      139.774696,
      35.710095
     ],
     [
      139.774655,
      35.710405
     ],
     [
      139.774642,
      35.710701
     ],
     [
      139.774672,
      35.711096
     ],
     [
      139.774752,
      35.71143
     ],
     [
      139.774852,
      35.711686
     ],
     [
      139.774981,
      35.711934
     ],
     [
      139.776084,
      35.7136
     ],
     [
      139.776595,
      35.714298
     ],
     [
      139.777591,
      35.715534
     ],
     [
      139.779225,
      35.717383
     ],
     [
      139.779371,
      35.717598
     ],
     [
      139.779482,
      35.717814
     ],
     [
      139.779635,
      35.718214
     ],
     [
      139.77968,
      35.718414
     ],
     [
      139.779722,
      35.718862
     ],
     [
      139.779715,
      35.719107
     ],
     [
      139.779634,
      35.719527
     ],
     [
      139.779479,
      35.719935
     ],
     [
      139.77931,
      35.720222
     ],
     [
      139.779189,
      35.720372
     ],
     [
      139.777904,
      35.721695
     ],
     [
      139.776728,
      35.722699
     ],
     [
      139.77413,
      35.725116
     ],
     [
      139.773573,
      35.725612
     ],
     [
      139.772985,
      35.726039
     ],
     [
      139.7726,
      35.726271
     ],
     [
      139.771608,
      35.726932
     ],
     [
      139.771128,
      35.727332
     ],
     [
      139.770404,
      35.72797
     ],
     [
      139.76977,
      35.728514
     ],
     [
      139.769251,
      35.729016
     ],
     [
      139.768968,
      35.729326
     ],
     [
      139.767345,
      35.731219
     ],
     [
      139.766641,
      35.732189
     ],
     [
      139.765831,
      35.733354
     ],
     [
      139.765325,
      35.733961
     ],
     [
      139.765077,
      35.734223
     ],
     [
      139.763932,
      35.735352
     ],
     [
      139.762779,
      35.736381
     ],
     [
      139.762403,
      35.736754
     ],
     [
      139.76169,
      35.73736
     ],
     [
      139.759268,
      35.739403
     ],
     [
      139.758812,
      35.739718
     ],
     [
      139.758567,
      35.739856
     ],
     [
      139.758028,
      35.740109
     ],
     [
      139.757399,
      35.740322
     ],
     [
      139.757105,
      35.740394
     ],
     [
      139.75655,
      35.740477
     ],
     [
      139.756053,
      35.740476
     ],
     [
      139.755627,
      35.740443
     ],
     [
      139.755298,
      35.740375
     ],
     [
      139.754931,
      35.740261
     ],
     [
      139.754614,
      35.740132
     ],
     [
      139.751632,
      35.738594
     ],
     [
      139.749547,
      35.737559
     ],
     [
      139.748387,
      35.737014
     ],
     [
      139.747746,
      35.736745
     ],
     [
      139.747256,
      35.736557
     ],
     [
      139.739457,
      35.733358
     ],
     [
      139.738849,
      35.733119
     ],
     [
      139.736927,
      35.73228
     ],
     [
      139.734926,
      35.731445
     ],
     [
      139.734314,
      35.731215
     ],
     [
      139.734032,
      35.731129
     ],
     [
      139.7335,
      35.731004
     ],
     [
      139.732918,
      35.730927
     ],
     [
      139.732333,
      35.730896
     ],
     [
      139.73202,
      35.730898
     ],
     [
      139.731435,
      35.73095
     ],
     [
      139.730781,
      35.731085
     ],
     [
      139.728585,
      35.731635
     ],
     [
      139.726916,
      35.732068
     ],
     [
      139.720323,
      35.733832
     ],
     [
      139.718215,
      35.73438
     ],
     [
      139.717517,
      35.734533
     ],
     [
      139.717092,
      35.734586
     ],
     [
      139.716372,
      35.734601
     ],
     [
      139.716082,
      35.734579
     ],
     [
      139.715808,
      35.734553
     ],
     [
      139.715273,
      35.734458
     ],
     [
      139.714704,
      35.734307
     ],
     [
      139.71423,
      35.734143
     ],
     [
      139.714024,
      35.734062
     ],
     [
      139.713536,
      35.733784
     ],
     [
      139.713212,
      35.733567
     ],
     [
      139.713054,
      35.733438
     ],
     [
      139.71277,
      35.733173
     ],
     [
      139.712596,
      35.732973
     ],
     [
      139.71243,
      35.732761
     ],
     [
      139.712089,
      35.732269
     ],
     [
      139.711905,
      35.731963
     ],
     [
      139.710986,
      35.730244
     ],
     [
      139.710565,
      35.729411
     ],
     [
      139.709889,
      35.727712
     ],
     [
      139.70974,
      35.727406
     ],
     [
      139.708861,
      35.725685
     ],
     [
      139.708251,
      35.724646
     ],
     [
      139.707138,
      35.722506
     ],
     [
      139.706803,
      35.721852
     ],
     [
      139.706516,
      35.721178
     ],
     [
      139.705597,
      35.718548
     ],
     [
      139.704816,
      35.715956
     ],
     [
      139.703685,
      35.712677
     ],
     [
      139.70211,
      35.708233
     ],
     [
      139.700703,
      35.704192
     ],
     [
      139.700559,
      35.70363
     ],
     [
      139.70049,
      35.703224
     ],
     [
      139.700296,
      35.701298
     ],
     [
      139.700026,
      35.698578
     ],
     [
      139.699911,
      35.69792
     ],
     [
      139.699437,
      35.696338
     ],
     [
      139.699365,
      35.695903
     ],
     [
      139.699355,
      35.695656
     ],
     [
      139.699364,
      35.695384
     ],
     [
      139.699429,
      35.694944
     ],
     [
      139.699993,
      35.69266
     ],
     [
      139.700035,
      35.692192
     ],
     [
      139.70002,
      35.691111
     ],
     [
      139.700051,
      35.690472
     ],
     [
      139.700165,
      35.689638
     ],
     [
      139.700331,
      35.688969
     ],
     [
      139.700578,
      35.688042
     ],
     [
      139.700923,
      35.687206
     ],
     [
      139.701217,
      35.686254
     ],
     [
      139.701751,
      35.684978
     ],
     [
      139.701866,
      35.68461
     ],
     [
      139.702035,
      35.683944
     ],
     [
      139.702224,
      35.683258
     ],
     [
      139.70273,
      35.682179
     ],
     [
      139.702884,
      35.681797
     ],
     [
      139.703708,
      35.678813
     ],
     [
      139.703855,
      35.678062
     ],
     [
      139.703908,
      35.677657
     ],
     [
      139.704011,
      35.676082
     ],
     [
      139.703997,
      35.675541
     ],
     [
      139.703911,
      35.675043
     ],
     [
      139.703557,
      35.673921
     ],
     [
      139.702906,
      35.672102
     ],
     [
      139.702809,
      35.671757
     ],
     [
      139.70247,
      35.670217
     ],
     [
      139.701517,
      35.663294
     ],
     [
      139.701425,
      35.662345
     ],
     [
      139.701261,
      35.660137
     ],
     [
      139.70125,
      35.659606
     ],
     [
      139.701306,
      35.659194
     ],
     [
      139.701424,
      35.65878
     ],
     [
      139.70153,
      35.658503
     ],
     [
      139.701751,
      35.658075
     ],
     [
      139.702338,
      35.657077
     ],
     [
      139.702683,
      35.656593
     ],
     [
      139.704625,
      35.654365
     ],
     [
      139.70538,
      35.653669
     ],
     [
      139.705751,
      35.653281
     ],
     [
      139.70719,
      35.651628
     ],
     [
      139.707629,
      35.651087
     ],
     [
      139.707849,
      35.650773
     ],
     [
      139.708199,
      35.650194
     ],
     [
      139.709211,
      35.648348
     ],
     [
      139.709399,
      35.647984
     ],
     [
      139.709749,
      35.647216
     ],
     [
      139.71019,
      35.646435
     ],
     [
      139.710515,
      35.645888
     ],
     [
      139.711016,
      35.644943
     ],
     [
      139.711989,
      35.643278
     ],
     [
      139.712942,
      35.641522
     ],
     [
      139.713327,
      35.640783
     ],
     [
      139.713746,
      35.639812
     ],
     [
      139.713934,
      35.639442
     ],
     [
      139.714522,
      35.638575
     ],
     [
      139.714704,
      35.638263
     ],
     [
      139.714845,
      35.637882
     ],
     [
      139.714902,
      35.637657
     ],
     [
      139.71502,
      35.636702
     ],
     [
      139.71507,
      35.636473
     ],
     [
      139.715428,
      35.63519
     ],
     [
      139.715642,
      35.634672
     ],
     [
      139.715797,
      35.634071
     ],
     [
      139.716007,
      35.633237
     ],
     [
      139.716314,
      35.631843
     ],
     [
      139.716461,
      35.631445
     ],
     [
      139.716617,
      35.631126
     ],
     [
      139.716749,
      35.630903
     ],
     [
      139.716893,
      35.630699
     ],
     [
      139.717219,
      35.630336
     ],
     [
      139.717426,
      35.630146
     ],
     [
      139.717649,
      35.629974
     ],
     [
      139.718103,
      35.629677
     ],
     [
      139.718379,
      35.62953
     ],
     [
      139.721134,
      35.628301
     ],
     [
      139.721818,
      35.627944
     ],
     [
      139.722157,
      35.627732
     ],
     [
      139.722761,
      35.627267
     ],
     [
      139.723066,
      35.626991
     ],
     [
      139.723332,
      35.626731
     ],
     [
      139.723589,
      35.626435
     ],
     [
      139.723693,
      35.62629
     ],
     [
      139.724275,
      35.625482
     ],
     [
      139.724612,
      35.624966
     ],
     [
      139.725191,
      35.624144
     ],
     [
      139.727415,
      35.621211
     ],
     [
      139.728402,
      35.620068
     ],
     [
      139.72879,
      35.619535
     ],
     [
      139.729053,
      35.619146
     ],
     [
      139.729651,
      35.618326
     ],
     [
      139.729895,
      35.618043
     ],
     [
      139.730278,
      35.617698
     ],
     [
      139.730696,
      35.617415
     ],
     [
      139.730937,
      35.617291
     ],
     [
      139.731442,
      35.617092
     ],
     [
      139.731743,
      35.617003
     ],
     [
      139.731996,
      35.616949
     ],
     [
      139.732302,
      35.616901
     ],
     [
      139.732595,
      35.616875
     ],
     [
      139.732786,
      35.616866
     ],
     [
      139.733194,
      35.616877
     ],
     [
      139.73373,
      35.616939
     ],
     [
      139.734418,
      35.617089
     ],
     [
      139.734934,
      35.617256
     ],
     [
      139.735382,
      35.61747
     ],
     [
      139.735751,
      35.617701
     ],
     [
      139.736156,
      35.618019
     ],
     [
      139.736332,
      35.618185
     ],
     [
      139.736671,
      35.618564
     ],
     [
      139.736966,
      35.619023
     ],
     [
      139.737083,
      35.619257
     ],
     [
      139.737315,
      35.619997
     ],
     [
      139.73832,
      35.62363
     ],
     [
      139.738603,
      35.624787
     ],
     [
      139.73866,
      35.625079
     ],
     [
      139.738703,
      35.625568
     ],
     [
      139.738694,
      35.626055
     ],
     [
      139.738637,
      35.626461
     ],
     [
      139.738516,
      35.627029
     ],
     [
      139.738408,
      35.627672
     ],
     [
      139.738352,
      35.62865
     ],
     [
      139.738345,
      35.629277
     ],
     [
      139.738377,
      35.629786
     ],
     [
      139.738432,
      35.630078
     ],
     [
      139.738528,
      35.630428
     ],
     [
      139.738736,
      35.630958
     ],
     [
      139.739475,
      35.632571
     ],
     [
      139.739647,
      35.633002
     ],
     [
      139.740096,
      35.634427
     ],
     [
      139.740528,
      35.635442
     ],
     [
      139.740945,
      35.636418
     ],
     [
      139.741519,
      35.63754
     ],
     [
      139.74206,
      35.638938
     ],
     [
      139.742636,
      35.640269
     ],
     [
      139.742737,
      35.640597
     ],
     [
      139.742996,
      35.64167
     ],
     [
      139.743188,
      35.642254
     ],
     [
      139.743365,
      35.642628
     ],
     [
      139.743658,
      35.643104
     ],
     [
      139.743814,
      35.643315
     ],
     [
      139.744112,
      35.643656
     ],
     [
      139.74452,
      35.644028
     ],
     [
      139.745008,
      35.644361
     ],
     [
      139.746212,
      35.645043
     ],
     [
      139.747672,
      35.645754
     ],
     [
      139.75285,
      35.648263
     ],
     [
      139.753224,
      35.648482
     ],
     [
      139.753632,
      35.64876
     ],
     [
      139.753993,
      35.649042
     ],
     [
      139.754575,
      35.649543
     ],
     [
      139.755087,
      35.650126
     ],
     [
      139.755297,
      35.650429
     ],
     [
      139.755738,
      35.651151
     ],
     [
      139.756123,
      35.651949
     ],
     [
      139.756279,
      35.652347
     ],
     [
      139.756386,
      35.652684
     ],
     [
      139.757036,
      35.655114
     ],
     [
      139.757581,
      35.657146
     ],
     [
      139.758362,
      35.660356
     ],
     [
      139.75852,
      35.661303
     ],
     [
      139.758571,
      35.661944
     ],
     [
      139.758574,
      35.662631
     ],
     [
      139.758536,
      35.663283
     ],
     [
      139.758245,
      35.665362
     ],
     [
      139.758087,
      35.666164
     ],
     [
      139.757988,
      35.666942
     ],
     [
      139.757969,
      35.667234
     ],
     [
      139.757989,
      35.667798
     ],
     [
      139.758036,
      35.668112
     ],
     [
      139.758124,
      35.668479
     ],
     [
      139.758235,
      35.668788
     ],
     [
      139.758396,
      35.669124
     ],
     [
      139.760251,
      35.672391
     ],
     [
      139.760694,
      35.672998
     ],
     [
      139.761109,
      35.673442
     ],
     [
      139.761371,
      35.67368
     ],
     [
      139.763032,
      35.674973
     ],
     [
      139.763961,
      35.675685
     ],
     [
      139.764282,
      35.675944
     ],
     [
      139.764442,
      35.676097
     ],
     [
      139.764578,
      35.676236
     ],
     [
      139.764882,
      35.676611
     ],
     [
      139.765092,
      35.67697
     ],
     [
      139.765284,
      35.677413
     ],
     [
      139.765836,
      35.678852
     ],
     [
      139.765934,
      35.679174
     ],
     [
      139.766132,
      35.680058
     ],
     [
      139.766251,
      35.680437
     ],
     [
      139.766383,
      35.68078
     ],
     [
      139.766562,
      35.681256
     ]
    ]
   }
  }
 ],
 "stations": [
  {
   "index": 0,
   "jy": "JY01",
   "name": "Tokyo",
   "platformLon": 139.76679,
   "platformLat": 35.68123,
   "stopLon": 139.766562,
   "stopLat": 35.681256,
   "vertex": 0,
   "stopNode": 3589537653,
   "stopFromPlatformMeters": 20.8,
   "snapped": false
  },
  {
   "index": 1,
   "jy": "JY02",
   "name": "Kanda",
   "platformLon": 139.77088,
   "platformLat": 35.69169,
   "stopLon": 139.770965,
   "stopLat": 35.691781,
   "vertex": 6,
   "stopNode": 1822906621,
   "stopFromPlatformMeters": 12.7,
   "snapped": false
  },
  {
   "index": 2,
   "jy": "JY03",
   "name": "Akihabara",
   "platformLon": 139.77313,
   "platformLat": 35.6984,
   "stopLon": 139.773008,
   "stopLat": 35.698358,
   "vertex": 14,
   "stopNode": 3708276972,
   "stopFromPlatformMeters": 12,
   "snapped": false
  },
  {
   "index": 3,
   "jy": "JY04",
   "name": "Okachimachi",
   "platformLon": 139.77475,
   "platformLat": 35.70745,
   "stopLon": 139.77461,
   "stopLat": 35.706955,
   "vertex": 19,
   "stopNode": 3708277005,
   "stopFromPlatformMeters": 56.3,
   "snapped": false
  },
  {
   "index": 4,
   "jy": "JY05",
   "name": "Ueno",
   "platformLon": 139.7772,
   "platformLat": 35.7138,
   "stopLon": 139.776084,
   "stopLat": 35.7136,
   "vertex": 30,
   "stopNode": 3708279850,
   "stopFromPlatformMeters": 103.4,
   "snapped": false
  },
  {
   "index": 5,
   "jy": "JY06",
   "name": "Uguisudani",
   "platformLon": 139.7784,
   "platformLat": 35.72125,
   "stopLon": 139.777904,
   "stopLat": 35.721695,
   "vertex": 44,
   "stopNode": 3708279853,
   "stopFromPlatformMeters": 66.8,
   "snapped": false
  },
  {
   "index": 6,
   "jy": "JY07",
   "name": "Nippori",
   "platformLon": 139.7707,
   "platformLat": 35.728,
   "stopLon": 139.770404,
   "stopLat": 35.72797,
   "vertex": 52,
   "stopNode": 3708276261,
   "stopFromPlatformMeters": 27,
   "snapped": false
  },
  {
   "index": 7,
   "jy": "JY08",
   "name": "Nishi-Nippori",
   "platformLon": 139.7667,
   "platformLat": 35.73215,
   "stopLon": 139.766641,
   "stopLat": 35.732189,
   "vertex": 57,
   "stopNode": 3708277000,
   "stopFromPlatformMeters": 6.9,
   "snapped": false
  },
  {
   "index": 8,
   "jy": "JY09",
   "name": "Tabata",
   "platformLon": 139.7608,
   "platformLat": 35.738,
   "stopLon": 139.76169,
   "stopLat": 35.73736,
   "vertex": 64,
   "stopNode": 3708277021,
   "stopFromPlatformMeters": 107.3,
   "snapped": false
  },
  {
   "index": 9,
   "jy": "JY10",
   "name": "Komagome",
   "platformLon": 139.7481,
   "platformLat": 35.7366,
   "stopLon": 139.747256,
   "stopLat": 35.736557,
   "vertex": 81,
   "stopNode": 3708276247,
   "stopFromPlatformMeters": 76.5,
   "snapped": false
  },
  {
   "index": 10,
   "jy": "JY11",
   "name": "Sugamo",
   "platformLon": 139.7393,
   "platformLat": 35.73352,
   "stopLon": 139.739457,
   "stopLat": 35.733358,
   "vertex": 82,
   "stopNode": 3708277018,
   "stopFromPlatformMeters": 22.9,
   "snapped": false
  },
  {
   "index": 11,
   "jy": "JY12",
   "name": "Otsuka",
   "platformLon": 139.72855,
   "platformLat": 35.73147,
   "stopLon": 139.728585,
   "stopLat": 35.731635,
   "vertex": 94,
   "stopNode": 1950369530,
   "stopFromPlatformMeters": 18.6,
   "snapped": false
  },
  {
   "index": 12,
   "jy": "JY13",
   "name": "Ikebukuro",
   "platformLon": 139.7104,
   "platformLat": 35.7295,
   "stopLon": 139.710986,
   "stopLat": 35.730244,
   "vertex": 115,
   "stopNode": 3558156195,
   "stopFromPlatformMeters": 98.1,
   "snapped": false
  },
  {
   "index": 13,
   "jy": "JY14",
   "name": "Mejiro",
   "platformLon": 139.7062,
   "platformLat": 35.7211,
   "stopLon": 139.706516,
   "stopLat": 35.721178,
   "vertex": 123,
   "stopNode": 3708276252,
   "stopFromPlatformMeters": 29.9,
   "snapped": false
  },
  {
   "index": 14,
   "jy": "JY15",
   "name": "Takadanobaba",
   "platformLon": 139.7038,
   "platformLat": 35.7127,
   "stopLon": 139.703685,
   "stopLat": 35.712677,
   "vertex": 126,
   "stopNode": 3708277024,
   "stopFromPlatformMeters": 10.7,
   "snapped": false
  },
  {
   "index": 15,
   "jy": "JY16",
   "name": "Shin-Okubo",
   "platformLon": 139.7,
   "platformLat": 35.70135,
   "stopLon": 139.700296,
   "stopLat": 35.701298,
   "vertex": 131,
   "stopNode": 3708277016,
   "stopFromPlatformMeters": 27.4,
   "snapped": false
  },
  {
   "index": 16,
   "jy": "JY17",
   "name": "Shinjuku",
   "platformLon": 139.70055,
   "platformLat": 35.6899,
   "stopLon": 139.700331,
   "stopLat": 35.688969,
   "vertex": 144,
   "stopNode": 3558156202,
   "stopFromPlatformMeters": 105.2,
   "snapped": false
  },
  {
   "index": 17,
   "jy": "JY18",
   "name": "Yoyogi",
   "platformLon": 139.702,
   "platformLat": 35.6832,
   "stopLon": 139.702035,
   "stopLat": 35.683944,
   "vertex": 150,
   "stopNode": 3708279860,
   "stopFromPlatformMeters": 82.6,
   "snapped": false
  },
  {
   "index": 18,
   "jy": "JY19",
   "name": "Harajuku",
   "platformLon": 139.70275,
   "platformLat": 35.6702,
   "stopLon": 139.70247,
   "stopLat": 35.670217,
   "vertex": 163,
   "stopNode": 4947881828,
   "stopFromPlatformMeters": 25.5,
   "snapped": false
  },
  {
   "index": 19,
   "jy": "JY20",
   "name": "Shibuya",
   "platformLon": 139.70165,
   "platformLat": 35.65845,
   "stopLon": 139.701751,
   "stopLat": 35.658075,
   "vertex": 171,
   "stopNode": 3558156199,
   "stopFromPlatformMeters": 42.6,
   "snapped": false
  },
  {
   "index": 20,
   "jy": "JY21",
   "name": "Ebisu",
   "platformLon": 139.71005,
   "platformLat": 35.6467,
   "stopLon": 139.71019,
   "stopLat": 35.646435,
   "vertex": 184,
   "stopNode": 2218777236,
   "stopFromPlatformMeters": 32.1,
   "snapped": false
  },
  {
   "index": 21,
   "jy": "JY22",
   "name": "Meguro",
   "platformLon": 139.7157,
   "platformLat": 35.63395,
   "stopLon": 139.715797,
   "stopLat": 35.634071,
   "vertex": 200,
   "stopNode": 1593259713,
   "stopFromPlatformMeters": 16.1,
   "snapped": false
  },
  {
   "index": 22,
   "jy": "JY23",
   "name": "Gotanda",
   "platformLon": 139.7235,
   "platformLat": 35.6259,
   "stopLon": 139.723693,
   "stopLat": 35.62629,
   "vertex": 219,
   "stopNode": 7962169291,
   "stopFromPlatformMeters": 46.6,
   "snapped": false
  },
  {
   "index": 23,
   "jy": "JY24",
   "name": "Osaki",
   "platformLon": 139.7286,
   "platformLat": 35.6197,
   "stopLon": 139.72879,
   "stopLat": 35.619535,
   "vertex": 225,
   "stopNode": 3708277011,
   "stopFromPlatformMeters": 25.1,
   "snapped": false
  },
  {
   "index": 24,
   "jy": "JY25",
   "name": "Shinagawa",
   "platformLon": 139.7387,
   "platformLat": 35.62855,
   "stopLon": 139.738352,
   "stopLat": 35.62865,
   "vertex": 258,
   "stopNode": 3589537622,
   "stopFromPlatformMeters": 33.4,
   "snapped": false
  },
  {
   "index": 25,
   "jy": "JY26",
   "name": "Takanawa Gateway",
   "platformLon": 139.7407,
   "platformLat": 35.6357,
   "stopLon": 139.740528,
   "stopLat": 35.635442,
   "vertex": 267,
   "stopNode": 7293401980,
   "stopFromPlatformMeters": 32.6,
   "snapped": false
  },
  {
   "index": 26,
   "jy": "JY27",
   "name": "Tamachi",
   "platformLon": 139.7476,
   "platformLat": 35.64565,
   "stopLon": 139.747672,
   "stopLat": 35.645754,
   "vertex": 282,
   "stopNode": 3708279829,
   "stopFromPlatformMeters": 13.3,
   "snapped": false
  },
  {
   "index": 27,
   "jy": "JY28",
   "name": "Hamamatsucho",
   "platformLon": 139.757,
   "platformLat": 35.6553,
   "stopLon": 139.757036,
   "stopLat": 35.655114,
   "vertex": 294,
   "stopNode": 31253872,
   "stopFromPlatformMeters": 20.9,
   "snapped": false
  },
  {
   "index": 28,
   "jy": "JY29",
   "name": "Shimbashi",
   "platformLon": 139.75855,
   "platformLat": 35.6661,
   "stopLon": 139.758087,
   "stopLat": 35.666164,
   "vertex": 302,
   "stopNode": 31254032,
   "stopFromPlatformMeters": 42.5,
   "snapped": false
  },
  {
   "index": 29,
   "jy": "JY30",
   "name": "Yurakucho",
   "platformLon": 139.7631,
   "platformLat": 35.6749,
   "stopLon": 139.763032,
   "stopLat": 35.674973,
   "vertex": 314,
   "stopNode": 3708279865,
   "stopFromPlatformMeters": 10.2,
   "snapped": false
  }
 ],
 "legs": [
  {
   "from": 0,
   "to": 1,
   "meters": 1234
  },
  {
   "from": 1,
   "to": 2,
   "meters": 757
  },
  {
   "from": 2,
   "to": 3,
   "meters": 966
  },
  {
   "from": 3,
   "to": 4,
   "meters": 770
  },
  {
   "from": 4,
   "to": 5,
   "meters": 1044
  },
  {
   "from": 5,
   "to": 6,
   "meters": 974
  },
  {
   "from": 6,
   "to": 7,
   "meters": 580
  },
  {
   "from": 7,
   "to": 8,
   "meters": 731
  },
  {
   "from": 8,
   "to": 9,
   "meters": 1550
  },
  {
   "from": 9,
   "to": 10,
   "meters": 790
  },
  {
   "from": 10,
   "to": 11,
   "meters": 1057
  },
  {
   "from": 11,
   "to": 12,
   "meters": 1893
  },
  {
   "from": 12,
   "to": 13,
   "meters": 1085
  },
  {
   "from": 13,
   "to": 14,
   "meters": 977
  },
  {
   "from": 14,
   "to": 15,
   "meters": 1303
  },
  {
   "from": 15,
   "to": 16,
   "meters": 1383
  },
  {
   "from": 16,
   "to": 17,
   "meters": 579
  },
  {
   "from": 17,
   "to": 18,
   "meters": 1562
  },
  {
   "from": 18,
   "to": 19,
   "meters": 1360
  },
  {
   "from": 19,
   "to": 20,
   "meters": 1509
  },
  {
   "from": 20,
   "to": 21,
   "meters": 1472
  },
  {
   "from": 21,
   "to": 22,
   "meters": 1187
  },
  {
   "from": 22,
   "to": 23,
   "meters": 881
  },
  {
   "from": 23,
   "to": 24,
   "meters": 2059
  },
  {
   "from": 24,
   "to": 25,
   "meters": 784
  },
  {
   "from": 25,
   "to": 26,
   "meters": 1372
  },
  {
   "from": 26,
   "to": 27,
   "meters": 1421
  },
  {
   "from": 27,
   "to": 28,
   "meters": 1242
  },
  {
   "from": 28,
   "to": 29,
   "meters": 1117
  },
  {
   "from": 29,
   "to": 0,
   "meters": 787
  }
 ]
}
