{
  "type": "FeatureCollection",
  "name": "yamanote-yurakucho-tokyo",
  "features": [
    {
      "type": "Feature",
      "properties": {
        "line": "JR山手線 / Yamanote Line",
        "from": "Yurakucho (JY30)",
        "to": "Tokyo (JY01)",
        "segment": 29,
        "direction": "inner (内回り)",
        "altitude": "ellipsoidal metres (JGD2011 / GRS80), approximate rail head",
        "source": "OpenStreetMap (data/geo/yamanote-loop.geojson, relation 5376382)",
        "license": "ODbL 1.0",
        "attribution": "© les contributeurs OpenStreetMap - https://www.openstreetmap.org/copyright",
        "approximate": false,
        "note": "Tracé découpé depuis la polyligne réelle de la boucle (chantier 1).",
        "lengthMeters": 786.8,
        "generatedBy": "scripts/plateau/fetch-route.mjs"
      },
      "geometry": {
        "type": "LineString",
        "coordinates": [
          [
            139.763032,
            35.674973,
            47.4
          ],
          [
            139.763961,
            35.675685,
            47.43
          ],
          [
            139.764282,
            35.675944,
            47.46
          ],
          [
            139.764442,
            35.676097,
            47.49
          ],
          [
            139.764578,
            35.676236,
            47.52
          ],
          [
            139.764882,
            35.676611,
            47.55
          ],
          [
            139.765092,
            35.67697,
            47.58
          ],
          [
            139.765284,
            35.677413,
            47.62
          ],
          [
            139.765836,
            35.678852,
            47.65
          ],
          [
            139.765934,
            35.679174,
            47.68
          ],
          [
            139.766132,
            35.680058,
            47.71
          ],
          [
            139.766251,
            35.680437,
            47.74
          ],
          [
            139.766383,
            35.68078,
            47.77
          ],
          [
            139.766562,
            35.681256,
            47.8
          ]
        ]
      }
    }
  ]
}
